KUZGTU 1 (RS47S)        
1 57217U 23091AV  26195.10738405  .00007464  00000+0  25571-3 0  9991
2 57217  97.5054 259.8702 0010173  10.1572 349.9872 15.30456024168495
SONATE-2                
1 59112U 24043Q   26194.95526617  .00029149  00000+0  35093-3 0  9991
2 59112  97.5553 347.0382 0006889 110.1263 250.0735 15.60757395132068
MESAT1                  
1 60209U 24125G   26195.15738418  .00048668  00000+0  46837-3 0  9993
2 60209  97.2249  53.3108 0010960 115.7447 244.4946 15.66341348113781
OOV-CUBE (TUBSAT-30)    
1 60240U 24128F   26195.13595913  .00001043  00000+0  91808-4 0  9995
2 60240  61.9937 131.5963 0041269 139.7934 220.6223 15.02871344110166
COLIBRI-S (RS67S)       
1 61746U 24199M   26195.14188617  .00014158  00000+0  26451-3 0  9997
2 61746  97.2955  69.2578 0008856 165.7261 194.4242 15.48821344141580
HORS 3 (RS81S)          
1 61753U 24199U   26195.16530176  .00024844  00000+0  34664-3 0  9996
2 61753  97.2937  71.5751 0007085 158.9010 201.2539 15.56856242141755
HORS 4 (RS82S)          
1 61754U 24199V   26195.16655413  .00036265  00000+0  41058-3 0  9994
2 61754  97.2881  72.9662 0006922 151.1831 208.9811 15.62313274141853
SIT-2086                
1 61764U 24199AF  26195.17634551  .00024756  00000+0  37007-3 0  9997
2 61764  97.2893  71.9693 0008158 147.5361 212.6396 15.54969095138620
HYPERVIEW 1G (RS66S)    
1 61772U 24199AP  26194.97856389  .00176797  00000+0  74626-3 0  9999
2 61772  97.2813  76.2153 0008247 151.3914 208.7811 15.84916828138904
ALTAIR (RS65S)          
1 61779U 24199AW  26195.19060623  .00006673  00000+0  18329-3 0  9992
2 61779  97.2995  64.3679 0011910 200.1166 159.9611 15.37493675141262
ASRTU-1 (AO-123)        
1 61781U 24199AY  26195.13801147  .00004539  00000+0  13131-3 0  9998
2 61781  97.2966  63.5680 0012892 204.6366 155.4264 15.36044360138068
SAMSAT-IONOSPHERE (RS7*)
1 61784U 24199BB  26195.14883199  .00035084  00000+0  43286-3 0  9992
2 61784  97.2903  71.7127 0009088 163.6674 196.4878 15.60054104141769
RTU MIREA 1 (RS51S)     
1 61785U 24199BC  26195.17200740  .00043896  00000+0  46092-3 0  9999
2 61785  97.2888  72.7200 0009201 158.3719 201.7931 15.64186288138683
TEVEL2-4                
1 63213U 25052D   26195.16880012  .00010817  00000+0  31530-3 0  9999
2 63213  97.3874  91.6185 0003629  53.7808 306.3771 15.35543856 74256
TEVEL2-5                
1 63214U 25052E   26195.12727550  .00011592  00000+0  33972-3 0  9996
2 63214  97.3871  91.5170 0003740  55.0264 305.1330 15.35356519 74247
TEVEL2-6                
1 63215U 25052F   26194.68399480  .00010540  00000+0  30960-3 0  9990
2 63215  97.3876  91.0570 0003725  58.8259 301.3350 15.35309707 74179
TEVEL2-1                
1 63217U 25052H   26195.17892284  .00010878  00000+0  32509-3 0  9992
2 63217  97.3850  91.1450 0004326  62.5527 297.6156 15.34753724 74238
TEVEL2-3                
1 63218U 25052J   26195.17252395  .00010440  00000+0  31151-3 0  9993
2 63218  97.3851  91.1639 0004095  63.3095 296.8567 15.34815122 74239
TEVEL2-2                
1 63219U 25052K   26195.17905770  .00010846  00000+0  32404-3 0  9998
2 63219  97.3845  91.1481 0004384  62.7523 297.4166 15.34764241 74235
OTP-2                   
1 63235U 25052AB  26195.14438439  .00003906  00000+0  16249-3 0  9994
2 63235  97.3840  87.1741 0008232  73.9596 286.2547 15.24329259 73976
TEVEL2-9                
1 63237U 25052AD  26195.19196980  .00010152  00000+0  32345-3 0  9999
2 63237  97.3911  90.4760 0007744  60.2965 299.9047 15.32713369 74167
TEVEL2-7                
1 63238U 25052AE  26195.17294671  .00009686  00000+0  31178-3 0  9997
2 63238  97.3909  90.3613 0007835  59.6827 300.5189 15.32397562 74159
TEVEL2-8                
1 63239U 25052AF  26195.18145931  .00009635  00000+0  31031-3 0  9995
2 63239  97.3909  90.3457 0007858  60.3115 299.8909 15.32382462 74153
INNOSAT 16 (RS92S7)     
1 64878U 25155C   26195.15639222  .00003121  00000+0  12501-3 0  9992
2 64878  97.4579 162.2060 0012480  91.6053 268.6615 15.25731820 84787
GEOSCAN 6 (RS92S6)      
1 64879U 25155D   26195.18532999  .00006085  00000+0  20779-3 0  9997
2 64879  97.4568 163.8536 0009978  84.9881 275.2498 15.30642181 84895
GEOSCAN 1 (RS92S1)      
1 64880U 25155E   26195.17680869  .00006513  00000+0  21783-3 0  9990
2 64880  97.4565 164.0175 0009925  85.2823 274.9551 15.31289075 84906
239ALFEROV (RS61S)      
1 64881U 25155F   26195.17164273  .00008570  00000+0  26550-3 0  9999
2 64881  97.4563 164.6677 0009609  85.0084 275.2255 15.33652078 84942
GEOSCAN 2 (RS92S2)      
1 64890U 25155Q   26195.16585323  .00006333  00000+0  21026-3 0  9999
2 64890  97.4564 164.1694 0009080  75.4410 284.7838 15.31546760 84913
GEOSCAN 5 (RS92S5)      
1 64891U 25155R   26195.22039655  .00008656  00000+0  26562-3 0  9999
2 64891  97.4557 164.8647 0008650  89.2424 270.9810 15.33959543 84962
GEOSCAN 4 (RS92S4)      
1 64892U 25155S   26195.13654002  .00009366  00000+0  28569-3 0  9997
2 64892  97.4560 164.8365 0008586  89.7180 270.5047 15.34125733 84950
