OBJECT_NAME,OBJECT_ID,EPOCH,MEAN_MOTION,ECCENTRICITY,INCLINATION,RA_OF_ASC_NODE,ARG_OF_PERICENTER,MEAN_ANOMALY,EPHEMERIS_TYPE,CLASSIFICATION_TYPE,NORAD_CAT_ID,ELEMENT_SET_NO,REV_AT_EPOCH,BSTAR,MEAN_MOTION_DOT,MEAN_MOTION_DDOT
KUZGTU 1 (RS47S),2023-091AV,2026-07-14T02:34:37.981920,15.30456024,.0010173,97.5054,259.8702,10.1572,349.9872,0,U,57217,999,16849,.25571E-3,.7464E-4,0
SONATE-2,2024-043Q,2026-07-13T22:55:34.997088,15.60757395,.0006889,97.5553,347.0382,110.1263,250.0735,0,U,59112,999,13206,.35093E-3,.29149E-3,0
MESAT1,2024-125G,2026-07-14T03:46:37.993152,15.66341348,.001096,97.2249,53.3108,115.7447,244.4946,0,U,60209,999,11378,.46837E-3,.48668E-3,0
OOV-CUBE (TUBSAT-30),2024-128F,2026-07-14T03:15:46.868832,15.02871344,.0041269,61.9937,131.5963,139.7934,220.6223,0,U,60240,999,11016,.91808E-4,.1043E-4,0
COLIBRI-S (RS67S),2024-199M,2026-07-14T03:24:18.965088,15.48821344,.0008856,97.2955,69.2578,165.7261,194.4242,0,U,61746,999,14158,.26451E-3,.14158E-3,0
HORS 3 (RS81S),2024-199U,2026-07-14T03:58:02.072064,15.56856242,.0007085,97.2937,71.5751,158.9010,201.2539,0,U,61753,999,14175,.34664E-3,.24844E-3,0
HORS 4 (RS82S),2024-199V,2026-07-14T03:59:50.276832,15.62313274,.0006922,97.2881,72.9662,151.1831,208.9811,0,U,61754,999,14185,.41058E-3,.36265E-3,0
SIT-2086,2024-199AF,2026-07-14T04:13:56.252064,15.54969095,.0008158,97.2893,71.9693,147.5361,212.6396,0,U,61764,999,13862,.37007E-3,.24756E-3,0
HYPERVIEW 1G (RS66S),2024-199AP,2026-07-13T23:29:07.920096,15.84916828,.0008247,97.2813,76.2153,151.3914,208.7811,0,U,61772,999,13890,.74626E-3,.176797E-2,0
ALTAIR (RS65S),2024-199AW,2026-07-14T04:34:28.378272,15.37493675,.001191,97.2995,64.3679,200.1166,159.9611,0,U,61779,999,14126,.18329E-3,.6673E-4,0
ASRTU-1 (AO-123),2024-199AY,2026-07-14T03:18:44.191008,15.36044360,.0012892,97.2966,63.5680,204.6366,155.4264,0,U,61781,999,13806,.13131E-3,.4539E-4,0
SAMSAT-IONOSPHERE (RS75S),2024-199BB,2026-07-14T03:34:19.083936,15.60054104,.0009088,97.2903,71.7127,163.6674,196.4878,0,U,61784,999,14176,.43286E-3,.35084E-3,0
RTU MIREA 1 (RS51S),2024-199BC,2026-07-14T04:07:41.439360,15.64186288,.0009201,97.2888,72.7200,158.3719,201.7931,0,U,61785,999,13868,.46092E-3,.43896E-3,0
TEVEL2-4,2025-052D,2026-07-14T04:03:04.330368,15.35543856,.0003629,97.3874,91.6185,53.7808,306.3771,0,U,63213,999,7425,.3153E-3,.10817E-3,0
TEVEL2-5,2025-052E,2026-07-14T03:03:16.603200,15.35356519,.000374,97.3871,91.5170,55.0264,305.1330,0,U,63214,999,7424,.33972E-3,.11592E-3,0
TEVEL2-6,2025-052F,2026-07-13T16:24:57.150720,15.35309707,.0003725,97.3876,91.0570,58.8259,301.3350,0,U,63215,999,7417,.3096E-3,.1054E-3,0
TEVEL2-1,2025-052H,2026-07-14T04:17:38.933376,15.34753724,.0004326,97.3850,91.1450,62.5527,297.6156,0,U,63217,999,7423,.32509E-3,.10878E-3,0
TEVEL2-3,2025-052J,2026-07-14T04:08:26.069280,15.34815122,.0004095,97.3851,91.1639,63.3095,296.8567,0,U,63218,999,7423,.31151E-3,.1044E-3,0
TEVEL2-2,2025-052K,2026-07-14T04:17:50.585280,15.34764241,.0004384,97.3845,91.1481,62.7523,297.4166,0,U,63219,999,7423,.32404E-3,.10846E-3,0
OTP-2,2025-052AB,2026-07-14T03:27:54.811296,15.24329259,.0008232,97.3840,87.1741,73.9596,286.2547,0,U,63235,999,7397,.16249E-3,.3906E-4,0
TEVEL2-9,2025-052AD,2026-07-14T04:36:26.190720,15.32713369,.0007744,97.3911,90.4760,60.2965,299.9047,0,U,63237,999,7416,.32345E-3,.10152E-3,0
TEVEL2-7,2025-052AE,2026-07-14T04:09:02.595744,15.32397562,.0007835,97.3909,90.3613,59.6827,300.5189,0,U,63238,999,7415,.31178E-3,.9686E-4,0
TEVEL2-8,2025-052AF,2026-07-14T04:21:18.084384,15.32382462,.0007858,97.3909,90.3457,60.3115,299.8909,0,U,63239,999,7415,.31031E-3,.9635E-4,0
INNOSAT 16 (RS92S7),2025-155C,2026-07-14T03:45:12.287808,15.25731820,.001248,97.4579,162.2060,91.6053,268.6615,0,U,64878,999,8478,.12501E-3,.3121E-4,0
GEOSCAN 6 (RS92S6),2025-155D,2026-07-14T04:26:52.511136,15.30642181,.0009978,97.4568,163.8536,84.9881,275.2498,0,U,64879,999,8489,.20779E-3,.6085E-4,0
GEOSCAN 1 (RS92S1),2025-155E,2026-07-14T04:14:36.270816,15.31289075,.0009925,97.4565,164.0175,85.2823,274.9551,0,U,64880,999,8490,.21783E-3,.6513E-4,0
239ALFEROV (RS61S),2025-155F,2026-07-14T04:07:09.931872,15.33652078,.0009609,97.4563,164.6677,85.0084,275.2255,0,U,64881,999,8494,.2655E-3,.857E-4,0
GEOSCAN 2 (RS92S2),2025-155Q,2026-07-14T03:58:49.719072,15.31546760,.000908,97.4564,164.1694,75.4410,284.7838,0,U,64890,999,8491,.21026E-3,.6333E-4,0
GEOSCAN 5 (RS92S5),2025-155R,2026-07-14T05:17:22.261920,15.33959543,.000865,97.4557,164.8647,89.2424,270.9810,0,U,64891,999,8496,.26562E-3,.8656E-4,0
GEOSCAN 4 (RS92S4),2025-155S,2026-07-14T03:16:37.057728,15.34125733,.0008586,97.4560,164.8365,89.7180,270.5047,0,U,64892,999,8495,.28569E-3,.9366E-4,0
